{
  "type": "FeatureCollection",
  "features": [
    {
      "type": "Feature",
      "properties": {
        "nombre": "Persona desaparecida",
        "descripcion": "Estudiante de Paraná, desaparecida en 1976.",
        "categoria": "Personas desaparecidas",
        "u_map_options": {
          "color": "Crimson",
          "iconClass": "Circle"
        }
      },
      "geometry": {
        "type": "Point",
        "coordinates": [
          -60.53,
          -31.74
        ]
      }
    },
    {
      "type": "Feature",
      "properties": {
        "nombre": "Organismos de DDHH",
        "descripcion": "Organismos de DDHH",
        "categoria": "Organismos de DDHH",
        "u_map_options": {
          "color": "Green",
          "iconClass": "Circle"
        }
      },
      "geometry": {
        "type": "Point",
        "coordinates": [
          -58.02,
          -31.4
        ]
      }
    },
    {
      "type": "Feature",
      "properties": {
        "nombre": "Espacios de memoria",
        "descripcion": "Espacios de memoria",
        "categoria": "Espacios de memoria",
        "u_map_options": {
          "color": "Blue",
          "iconClass": "Circle"
        }
      },
      "geometry": {
        "type": "Point",
        "coordinates": [
          -58.51,
          -33.01
        ]
      }
    },
    {
      "type": "Feature",
      "properties": {
        "nombre": "Madres / CDD",
        "descripcion": "Madres / CDD",
        "categoria": "Madres / CDD",
        "u_map_options": {
          "color": "Gold",
          "iconClass": "Circle"
        }
      },
      "geometry": {
        "type": "Point",
        "coordinates": [
          -59.02,
          -32.87
        ]
      }
    },
    {
      "type": "Feature",
      "properties": {
        "nombre": "Laura Suárez",
        "descripcion": "Obrera textil de Concepción del Uruguay, desaparecida en 1976.",
        "categoria": "Personas desaparecidas",
        "u_map_options": {
          "color": "Crimson",
          "iconClass": "Circle"
        }
      },
      "geometry": {
        "type": "Point",
        "coordinates": [
          -58.23,
          -32.48
        ]
      }
    }
  ]
}